COMMENT,ORIGINATOR,NORAD_CAT_ID,OBJECT_NAME,OBJECT_TYPE,CLASSIFICATION_TYPE,INTLDES,EPOCH,EPOCH_MICROSECONDS,MEAN_MOTION,ECCENTRICITY,INCLINATION,RA_OF_ASC_NODE,ARG_OF_PERICENTER,MEAN_ANOMALY,EPHEMERIS_TYPE,ELEMENT_SET_NO,REV_AT_EPOCH,BSTAR,MEAN_MOTION_DOT,MEAN_MOTION_DDOT,FILE,TLE_LINE0,TLE_LINE1,TLE_LINE2,OBJECT_ID,OBJECT_NUMBER,SEMIMAJOR_AXIS,PERIOD,APOGEE,PERIGEE,DECAYED,date
GENERATED VIA SPACETRACK.ORG API,18 SPCS,52181,SPACEBEE-131,PAYLOAD,U,22033AA,2023/3/6 5:02,606176,15.34933327,0.0007844,97.3567,148.3914,177.6371,182.491,0,999,5160,0.0023747,0.00081211,0,3852532,0 SPACEBEE-131,1 52181U 22033AA  23065.21001859  .00081211  00000-0  23747-2 0  9997,2 52181  97.3567 148.3914 0007844 177.6371 182.4910 15.34933327 51608,2022-033AA,52181,6839.256,93.815,466.485,455.756,1,
GENERATED VIA SPACETRACK.ORG API,18 SPCS,52181,SPACEBEE-131,PAYLOAD,U,22033AA,2023/3/6 15:59,966592,15.34986725,0.0007783,97.3565,148.8472,176.6148,183.515,0,999,5167,0.0018655,0.00063742,0,3853098,0 SPACEBEE-131,1 52181U 22033AA  23065.66635378  .00063742  00000-0  18655-2 0  9996,2 52181  97.3565 148.8472 0007783 176.6148 183.5150 15.34986725 51678,2022-033AA,52181,6839.097,93.812,466.285,455.639,1,
GENERATED VIA SPACETRACK.ORG API,18 SPCS,52181,SPACEBEE-131,PAYLOAD,U,22033AA,2023/3/6 15:59,966592,15.34986725,0.0007783,97.3565,148.8472,176.6148,183.515,0,999,5169,0.0018655,0.00063742,0,3853141,0 SPACEBEE-131,1 52181U 22033AA  23065.66635378  .00063742  00000-0  18655-2 0  9996,2 52181  97.3565 148.8472 0007783 176.6148 183.5150 15.34986725 51690,2022-033AA,52181,6839.097,93.812,466.285,455.639,1,
GENERATED VIA SPACETRACK.ORG API,18 SPCS,52181,SPACEBEE-131,PAYLOAD,U,22033AA,2023/3/7 4:30,424032,15.35076109,0.0007845,97.3563,149.367,175.2039,184.928,0,999,5175,0.0022363,0.00076777,0,3853533,0 SPACEBEE-131,1 52181U 22033AA  23066.18785213  .00076777  00000-0  22363-2 0  9991,2 52181  97.3563 149.3670 0007845 175.2039 184.9280 15.35076109 51750,2022-033AA,52181,6838.831,93.806,466.062,455.331,1,
GENERATED VIA SPACETRACK.ORG API,18 SPCS,52181,SPACEBEE-131,PAYLOAD,U,22033AA,2023/3/7 4:30,424032,15.35076109,0.0007845,97.3563,149.367,175.2039,184.928,0,999,5177,0.0022363,0.00076777,0,3854072,0 SPACEBEE-131,1 52181U 22033AA  23066.18785213  .00076777  00000-0  22363-2 0  9991,2 52181  97.3563 149.3670 0007845 175.2039 184.9280 15.35076109 51772,2022-033AA,52181,6838.831,93.806,466.062,455.331,1,
GENERATED VIA SPACETRACK.ORG API,18 SPCS,52181,SPACEBEE-131,PAYLOAD,U,22033AA,2023/3/8 5:32,295584,15.35235244,0.0007819,97.356,150.4078,171.1418,188.9965,0,999,5191,0.0018957,0.00065303,0,3854714,0 SPACEBEE-131,1 52181U 22033AA  23067.23076731  .00065303  00000-0  18957-2 0  9993,2 52181  97.3560 150.4078 0007819 171.1418 188.9965 15.35235244 51918,2022-033AA,52181,6838.359,93.797,465.571,454.877,1,
GENERATED VIA SPACETRACK.ORG API,18 SPCS,52181,SPACEBEE-131,PAYLOAD,U,22033AA,2023/3/8 5:32,295584,15.35235244,0.0007819,97.356,150.4078,171.1418,188.9965,0,999,5193,0.0018957,0.00065303,0,3855077,0 SPACEBEE-131,1 52181U 22033AA  23067.23076731  .00065303  00000-0  18957-2 0  9993,2 52181  97.3560 150.4078 0007819 171.1418 188.9965 15.35235244 51930,2022-033AA,52181,6838.359,93.797,465.571,454.877,1,
GENERATED VIA SPACETRACK.ORG API,18 SPCS,52181,SPACEBEE-131,PAYLOAD,U,22033AA,2023/3/9 5:00,186816,15.35385529,0.0007793,97.3555,151.3833,168.1556,191.9873,0,999,5206,0.0022615,0.00078426,0,3855395,0 SPACEBEE-131,1 52181U 22033AA  23068.20840494  .00078426  00000-0  22615-2 0  9992,2 52181  97.3555 151.3833 0007793 168.1556 191.9873 15.35385529 52062,2022-033AA,52181,6837.913,93.788,465.106,454.449,1,
GENERATED VIA SPACETRACK.ORG API,18 SPCS,52181,SPACEBEE-131,PAYLOAD,U,22033AA,2023/3/9 19:04,753792,15.35485789,0.0007707,97.3551,151.9688,166.6267,193.5183,0,999,5217,0.0025576,0.00089111,0,3855951,0 SPACEBEE-131,1 52181U 22033AA  23068.79493928  .00089111  00000-0  25576-2 0  9994,2 52181  97.3551 151.9688 0007707 166.6267 193.5183 15.35485789 52172,2022-033AA,52181,6837.615,93.781,464.75,454.21,1,
GENERATED VIA SPACETRACK.ORG API,18 SPCS,52181,SPACEBEE-131,PAYLOAD,U,22033AA,2023/3/10 4:27,169344,15.35558829,0.000767,97.3551,152.3589,166.1238,194.0218,0,999,5221,0.0025514,0.00089101,0,3856287,0 SPACEBEE-131,1 52181U 22033AA  23069.18593946  .00089101  00000-0  25514-2 0  9990,2 52181  97.3551 152.3589 0007670 166.1238 194.0218 15.35558829 52215,2022-033AA,52181,6837.398,93.777,464.507,454.019,1,
GENERATED VIA SPACETRACK.ORG API,18 SPCS,52181,SPACEBEE-131,PAYLOAD,U,22033AA,2023/3/10 4:27,169344,15.35558829,0.000767,97.3551,152.3589,166.1238,194.0218,0,999,5223,0.0025514,0.00089101,0,3856975,0 SPACEBEE-131,1 52181U 22033AA  23069.18593946  .00089101  00000-0  25514-2 0  9990,2 52181  97.3551 152.3589 0007670 166.1238 194.0218 15.35558829 52237,2022-033AA,52181,6837.398,93.777,464.507,454.019,1,
GENERATED VIA SPACETRACK.ORG API,18 SPCS,52181,SPACEBEE-131,PAYLOAD,U,22033AA,2023/3/11 5:29,901280,15.35721837,0.0007667,97.3547,153.4001,162.3621,197.789,0,999,5237,0.0022306,0.00078182,0,3857297,0 SPACEBEE-131,1 52181U 22033AA  23070.22852895  .00078182  00000-0  22306-2 0  9991,2 52181  97.3547 153.4001 0007667 162.3621 197.7890 15.35721837 52375,2022-033AA,52181,6836.914,93.767,464.021,453.537,1,
GENERATED VIA SPACETRACK.ORG API,18 SPCS,52181,SPACEBEE-131,PAYLOAD,U,22033AA,2023/3/11 17:59,259840,15.35792832,0.0007542,97.3544,153.9214,160.3888,199.7648,0,999,5245,0.0018664,0.00065442,0,3858222,0 SPACEBEE-131,1 52181U 22033AA  23070.74978310  .00065442  00000-0  18664-2 0  9996,2 52181  97.3544 153.9214 0007542 160.3888 199.7648 15.35792832 52453,2022-033AA,52181,6836.704,93.763,463.725,453.412,1,
GENERATED VIA SPACETRACK.ORG API,18 SPCS,52181,SPACEBEE-131,PAYLOAD,U,22033AA,2023/3/12 11:11,747936,15.35894401,0.0007512,97.354,154.6373,158.5517,201.6043,0,999,5258,0.0021407,0.00075412,0,3858534,0 SPACEBEE-131,1 52181U 22033AA  23071.46646699  .00075412  00000-0  21407-2 0  9995,2 52181  97.3540 154.6373 0007512 158.5517 201.6043 15.35894401 52589,2022-033AA,52181,6836.402,93.756,463.403,453.132,1,
GENERATED VIA SPACETRACK.ORG API,18 SPCS,52181,SPACEBEE-131,PAYLOAD,U,22033AA,2023/3/12 15:53,739392,15.35923135,0.0007428,97.3538,154.8327,157.7625,202.3942,0,999,5259,0.0020916,0.00073731,0,3858733,0 SPACEBEE-131,1 52181U 22033AA  23071.66191828  .00073731  00000-0  20916-2 0  9992,2 52181  97.3538 154.8327 0007428 157.7625 202.3942 15.35923135 52598,2022-033AA,52181,6836.317,93.755,463.26,453.104,1,
GENERATED VIA SPACETRACK.ORG API,18 SPCS,52181,SPACEBEE-131,PAYLOAD,U,22033AA,2023/3/12 15:53,739392,15.35923135,0.0007428,97.3538,154.8327,157.7625,202.3942,0,999,5261,0.0020916,0.00073731,0,3858743,0 SPACEBEE-131,1 52181U 22033AA  23071.66191828  .00073731  00000-0  20916-2 0  9992,2 52181  97.3538 154.8327 0007428 157.7625 202.3942 15.35923135 52611,2022-033AA,52181,6836.317,93.755,463.26,453.104,1,
GENERATED VIA SPACETRACK.ORG API,18 SPCS,52181,SPACEBEE-131,PAYLOAD,U,22033AA,2023/3/13 4:23,181280,15.35992284,0.0007483,97.3535,155.3527,156.5815,203.5771,0,999,5267,0.0016736,0.00058998,0,3859350,0 SPACEBEE-131,1 52181U 22033AA  23072.18310395  .00058998  00000-0  16736-2 0  9995,2 52181  97.3535 155.3527 0007483 156.5815 203.5771 15.35992284 52675,2022-033AA,52181,6836.112,93.75,463.092,452.861,1,
GENERATED VIA SPACETRACK.ORG API,18 SPCS,52181,SPACEBEE-131,PAYLOAD,U,22033AA,2023/3/13 4:23,181280,15.35992284,0.0007483,97.3535,155.3527,156.5815,203.5771,0,999,5269,0.0016736,0.00058998,0,3859425,0 SPACEBEE-131,1 52181U 22033AA  23072.18310395  .00058998  00000-0  16736-2 0  9995,2 52181  97.3535 155.3527 0007483 156.5815 203.5771 15.35992284 52697,2022-033AA,52181,6836.112,93.75,463.092,452.861,1,
GENERATED VIA SPACETRACK.ORG API,18 SPCS,52181,SPACEBEE-131,PAYLOAD,U,22033AA,2023/3/14 3:50,294304,15.36111305,0.0007478,97.3536,156.3287,153.09,207.0733,0,999,5284,0.0017535,0.00062079,0,3860373,0 SPACEBEE-131,1 52181U 22033AA  23073.16026961  .00062079  00000-0  17535-2 0  9990,2 52181  97.3536 156.3287 0007478 153.0900 207.0733 15.36111305 52845,2022-033AA,52181,6835.759,93.743,462.735,452.512,1,
GENERATED VIA SPACETRACK.ORG API,18 SPCS,52181,SPACEBEE-131,PAYLOAD,U,22033AA,2023/3/14 16:21,326688,15.36179585,0.0007403,97.3533,156.85,151.0966,209.069,0,999,5290,0.0019954,0.00070889,0,3860610,0 SPACEBEE-131,1 52181U 22033AA  23073.68139267  .00070889  00000-0  19954-2 0  9996,2 52181  97.3533 156.8500 0007403 151.0966 209.0690 15.36179585 52908,2022-033AA,52181,6835.556,93.739,462.481,452.361,1,
GENERATED VIA SPACETRACK.ORG API,18 SPCS,52181,SPACEBEE-131,PAYLOAD,U,22033AA,2023/3/14 16:21,326688,15.36179585,0.0007403,97.3533,156.85,151.0966,209.069,0,999,5292,0.0019954,0.00070889,0,3860643,0 SPACEBEE-131,1 52181U 22033AA  23073.68139267  .00070889  00000-0  19954-2 0  9996,2 52181  97.3533 156.8500 0007403 151.0966 209.0690 15.36179585 52920,2022-033AA,52181,6835.556,93.739,462.481,452.361,1,
GENERATED VIA SPACETRACK.ORG API,18 SPCS,52181,SPACEBEE-131,PAYLOAD,U,22033AA,2023/3/15 11:06,468864,15.36302223,0.0007341,97.3535,157.6317,149.1721,210.9955,0,999,5302,0.0021757,0.00077673,0,3861280,0 SPACEBEE-131,1 52181U 22033AA  23074.46302626  .00077673  00000-0  21757-2 0  9996,2 52181  97.3535 157.6317 0007341 149.1721 210.9955 15.36302223 53029,2022-033AA,52181,6835.192,93.732,462.075,452.04,1,
GENERATED VIA SPACETRACK.ORG API,18 SPCS,52181,SPACEBEE-131,PAYLOAD,U,22033AA,2023/3/15 11:06,468864,15.36302223,0.0007341,97.3535,157.6317,149.1721,210.9955,0,999,5304,0.0021757,0.00077673,0,3861350,0 SPACEBEE-131,1 52181U 22033AA  23074.46302626  .00077673  00000-0  21757-2 0  9996,2 52181  97.3535 157.6317 0007341 149.1721 210.9955 15.36302223 53041,2022-033AA,52181,6835.192,93.732,462.075,452.04,1,
